INTELSAT 26 (IS-26)     
1 24732U 97007A   19138.81482858  .00000006  00000-0  00000+0 0  9992
2 24732   8.4869  45.3711 0006494 354.1058 192.2280  1.00272560 81348
GALAXY 25 (G-25)        
1 24812U 97026A   19139.14283559 -.00000173  00000-0  00000+0 0  9992
2 24812   1.0116  93.4451 0003467 321.6168 139.8074  1.00271888 80422
INTELSAT 5 (IS-5)       
1 24916U 97046A   19138.48795848  .00000080  00000-0  00000+0 0  9990
2 24916   4.9179  67.6531 0005011 345.0219 221.8714  1.00272330 79675
INTELSAT 805 (IS-805)   
1 25371U 98037A   19139.12329476 -.00000040  00000-0  00000+0 0  9996
2 25371   1.5458  90.7562 0003823 335.3245  23.9145  1.00272478 76630
GALAXY 11 (G-11)        
1 26038U 99071A   19138.79720976 -.00000241  00000-0  00000+0 0  9991
2 26038   0.3007 105.5114 0003018 337.4341  53.8812  0.99956676 71142
INTELSAT 9 (IS-9)       
1 26451U 00043A   19138.45676101 -.00000019  00000-0  00000+0 0  9997
2 26451   4.9061  67.8588 0003910 344.2373  54.3269  1.00272897 68910
INTELSAT 12 (IS-12)     
1 26590U 00068A   19138.86194479  .00000003  00000-0  00000+0 0  9998
2 26590   2.0138  88.2768 0005454 339.6839 182.8097  1.00271559 67868
INTELSAT 1R (IS-1R)     
1 26608U 00072A   19139.49216017 -.00000148  00000-0  00000+0 0  9997
2 26608   1.8224  89.1288 0000071 318.4017 163.6090  1.00271485 67724
INTELSAT 10 (IS-10)     
1 26766U 01019A   19139.17083831  .00000115  00000-0  00000+0 0  9998
2 26766   3.0152  81.4837 0003570 354.3887 269.6608  1.00270185 65994
INTELSAT 901 (IS-901)   
1 26824U 01024A   19138.79659910 -.00000224  00000-0  00000+0 0  9995
2 26824   0.9922  93.3019 0003226 328.6478  71.5127  1.00272126 65669
INTELSAT 902 (IS-902)   
1 26900U 01039A   19138.81482858  .00000022  00000-0  00000+0 0  9999
2 26900   0.0258 117.5927 0002965 305.3574 168.5941  1.00271712 64831
DIRECTV 4S              
1 26985U 01052A   19139.13238708 -.00000124  00000-0  00000+0 0  9990
2 26985   0.0121 323.3455 0002853  92.1455 127.4858  1.00270341 64064
INTELSAT 904 (IS-904)   
1 27380U 02007A   19138.80540992  .00000070  00000-0  00000+0 0  9994
2 27380   0.5410  97.4789 0002583 315.2757 128.2055  1.00158993 63158
INTELSAT 903 (IS-903)   
1 27403U 02016A   19138.79616292 -.00000235  00000-0  00000+0 0  9999
2 27403   1.3768  91.8025 0003144 345.8289  53.6701  1.00271675 62716
DIRECTV 5 (TEMPO 1)     
1 27426U 02023A   19139.13943338 -.00000066  00000-0  00000+0 0  9997
2 27426   0.0167 313.5837 0003542 109.7059 113.3070  1.00271371 62388
INTELSAT 905 (IS-905)   
1 27438U 02027A   19139.41924538 -.00000195  00000-0  00000+0 0  9999
2 27438   0.3620  99.0615 0002970 307.0692 317.0881  1.00270771 62047
GALAXY 3C (G-3C)        
1 27445U 02030A   19138.78660348 -.00000162  00000-0  00000+0 0  9990
2 27445   0.0172 303.5328 0001946  28.6007  92.1838  1.00270164 62023
INTELSAT 906 (IS-906)   
1 27513U 02041A   19138.81526476  .00000004  00000-0  00000+0 0  9999
2 27513   0.0129 271.5132 0002062 141.9728 180.3701  1.00270825 61030
INTELSAT 907 (IS-907)   
1 27683U 03007A   19139.15592097 -.00000212  00000-0  00000+0 0  9992
2 27683   0.0198 238.2820 0002630 175.8122 211.0622  1.00273531 59457
GALAXY 12 (G-12)        
1 27715U 03013B   19138.70465247  .00000048  00000-0  00000+0 0  9997
2 27715   0.5778  95.7217 0002742 339.1964 285.8417  1.00272162 59079
GALAXY 23 (G-23)        
1 27854U 03034A   19138.81090875  .00000002  00000-0  00000+0 0  9997
2 27854   0.0084 304.6341 0002859 110.0521 352.4566  1.00272791 62610
GALAXY 13 (HORIZONS 1)  
1 27954U 03044A   19139.46785403  .00000038  00000-0  00000+0 0  9998
2 27954   0.0511 108.0344 0000550 252.3427 277.8661  1.00270717 57230
DIRECTV 7S              
1 28238U 04016A   19139.46229708 -.00000009  00000-0  00000+0 0  9994
2 28238   0.0184 331.9708 0003362  93.2568 218.9669  1.00271939 55122
INTELSAT 10-02          
1 28358U 04022A   19138.80525877 -.00000022  00000-0  00000+0 0  9992
2 28358   0.0169 300.1236 0003378 122.1896 102.7815  1.00270304 54694
XM-3 (RHYTHM)           
1 28626U 05008A   19139.43158639 -.00000215  00000-0  00000+0 0  9997
2 28626   0.0449 107.6876 0000619 333.3130 226.0916  1.00268324 52133
SPACEWAY 1              
1 28644U 05015A   19138.70299498  .00000093  00000-0  00000+0 0  9996
2 28644   0.2220  98.7785 0000312 137.1641 114.3489  1.00272683 51572
DIRECTV 8               
1 28659U 05019A   19138.79216042 -.00000127  00000-0  00000+0 0  9998
2 28659   0.0051 347.9775 0003226  67.5960   5.0187  1.00271652 51254
GALAXY 28 (G-28)        
1 28702U 05022A   19139.44926814 -.00000195  00000-0  00000+0 0  9994
2 28702   0.0489 108.4628 0003385 359.0208 202.0824  1.00271554 50892
GALAXY 14 (G-14)        
1 28790U 05030A   19138.63399139  .00000026  00000-0  00000+0 0  9996
2 28790   0.0121 297.0794 0002698 119.3241 282.8554  1.00272535 50370
GALAXY 15 (G-15)        
1 28884U 05041A   19139.20364535  .00000068  00000-0  00000+0 0  9994
2 28884   0.0140 314.9107 0001819 100.0856 121.8982  1.00271691 49697
SPACEWAY 2              
1 28903U 05046B   19139.45234692 -.00000137  00000-0  00000+0 0  9996
2 28903   0.0075  54.6132 0000403  50.1004 195.8826  1.00270977 49560
GALAXY 16 (G-16)        
1 29236U 06023A   19138.79216042 -.00000138  00000-0  00000+0 0  9998
2 29236   0.0119  45.0586 0002838  14.2977   2.9825  1.00271867 47339
DIRECTV 9S              
1 29494U 06043A   19139.49700419 -.00000124  00000-0  00000+0 0  9995
2 29494   0.0124 241.9030 0003339 178.0294 254.7696  1.00271334 46173
XM-4 (BLUES)            
1 29520U 06049A   19138.81090875 -.00000033  00000-0  00000+0 0  9993
2 29520   0.0049  55.4796 0000168 334.4536  22.8986  1.00271397 46063
GALAXY 17 (G-17)        
1 31307U 07016B   19139.14327177 -.00000185  00000-0  00000+0 0  9997
2 31307   0.0614 103.7648 0003921 325.3631 127.9801  1.00270958 44147
DIRECTV 10              
1 31862U 07032A   19139.29458213 -.00000114  00000-0  00000+0 0  9995
2 31862   0.0127  44.1487 0000327  34.4805 161.2448  1.00274078 43479
SPACEWAY 3              
1 32018U 07036A   19139.42966720 -.00000162  00000-0  00000+0 0  9998
2 32018   0.0076  55.2960 0000091   0.0231 241.2199  1.00270040 43191
INTELSAT 11 (IS-11)     
1 32253U 07044B   19139.15286770 -.00000279  00000-0  00000+0 0  9997
2 32253   0.0187 311.7078 0001744 117.7790 179.0981  1.00269035 42599
HORIZONS 2              
1 32388U 07063B   19138.80254843 -.00000193  00000-0  00000+0 0  9999
2 32388   0.0132 342.6396 0003522  79.6341 187.6817  1.00271834 41949
DIRECTV 11              
1 32729U 08013A   19138.79216042 -.00000136  00000-0  00000+0 0  9998
2 32729   0.0045  48.1504 0000489 318.7914  55.2332  1.00269001 41004
GALAXY 18 (G-18)        
1 32951U 08024A   19138.81090875  .00000015  00000-0  00000+0 0  9999
2 32951   0.0133 322.4618 0003321  99.8370 342.8110  1.00270522 40158
INTELSAT 25 (IS-25)     
1 33153U 08034A   19138.79616292 -.00000235  00000-0  00000+0 0  9994
2 33153   0.0127 264.8322 0001547 101.3183 125.1434  1.00272668 39709
GALAXY 19 (G-19)        
1 33376U 08045A   19138.79216042 -.00000150  00000-0  00000+0 0  9998
2 33376   0.0131 322.0103 0003298  98.6840   3.6567  1.00269551 38903
SIRIUS FM-5             
1 35493U 09034A   19138.76994100 -.00000211  00000-0  00000+0 0  9992
2 35493   0.0149 292.6303 0001202  81.0010  53.5567  1.00272293 36040
INTELSAT 14 (IS-14)     
1 36097U 09064A   19139.15243153 -.00000284  00000-0  00000+0 0  9995
2 36097   0.0168 293.5475 0002760 129.0240 183.8440  1.00272142 34767
INTELSAT 15 (IS-15)     
1 36106U 09067A   19139.07202306 -.00000196  00000-0  00000+0 0  9997
2 36106   0.0146 345.3340 0002517  73.1462 289.0502  1.00271940 34668
DIRECTV 12              
1 36131U 09075A   19139.38066128 -.00000113  00000-0  00000+0 0  9997
2 36131   0.0364 149.6467 0000241 289.4755 191.8666  1.00269444 34456
INTELSAT 16 (IS-16)     
1 36397U 10006A   19139.14623778 -.00000255  00000-0  00000+0 0  9998
2 36397   0.0112 349.5194 0002279  69.7392 153.7178  1.00271839 33802
XM-5                    
1 37185U 10053A   19138.57013470 -.00000216  00000-0  00000+0 0  9991
2 37185   0.0196 300.2035 0000982  39.5159  16.2737  1.00273069 31510
INTELSAT 17 (IS-17)     
1 37238U 10065B   19138.81561369 -.00000012  00000-0  00000+0 0  9999
2 37238   0.0150 264.3683 0002679 149.7187 181.7420  1.00271428 30982
INTELSAT NEW DAWN       
1 37392U 11016A   19139.09616437  .00000145  00000-0  00000+0 0  9991
2 37392   0.0493 129.8629 0001090 303.3938 230.6564  1.00273710 29589
INTELSAT 18 (IS-18)     
1 37834U 11056A   19139.12556288  .00000042  00000-0  00000+0 0  9993
2 37834   0.0183 311.2609 0003024 125.6430  24.7926  1.00270874 27920
INTELSAT 22 (IS-22)     
1 38098U 12011A   19138.81683500 -.00000070  00000-0  00000+0 0  9993
2 38098   0.0080 109.2234 0002581 312.0564 181.0919  1.00272103 26111
INTELSAT 19 (IS-19)     
1 38356U 12030A   19139.48703149 -.00000067  00000-0  00000+0 0  9993
2 38356   0.0415  95.8545 0003040 318.5503 163.7957  1.00268940 25583
INTELSAT 20 (IS-20)     
1 38740U 12043A   19139.46220619 -.00000035  00000-0  00000+0 0  9993
2 38740   0.0052 300.0244 0001350 263.1725 268.5379  1.00270892 24903
INTELSAT 21 (IS-21)     
1 38749U 12045A   19139.19486133 -.00000295  00000-0  00000+0 0  9997
2 38749   0.0174 303.6280 0002373 114.0368 191.0586  1.00272376 24706
INTELSAT 23 (IS-23)     
1 38867U 12057A   19138.78104911 -.00000296  00000-0  00000+0 0  9997
2 38867   0.0140 307.2950 0001854 106.8059  50.2276  1.00272004 24174
SIRIUS FM-6             
1 39360U 13058A   19139.54437931 -.00000027  00000-0  00000+0 0  9996
2 39360   0.0151 320.2589 0000687 284.5901  71.9127  1.00271887 20417
INTELSAT 30 (IS-30)     
1 40271U 14062A   19139.42957997 -.00000161  00000-0  00000+0 0  9990
2 40271   0.0177 309.9923 0001695 134.9838 211.4252  1.00272207 16839
INTELSAT 34 (IS-34)     
1 40874U 15039A   19138.78104911 -.00000296  00000-0  00000+0 0  9991
2 40874   0.0126 298.4089 0000337  76.3283  87.1096  1.00271653 13736
INTELSAT 29E (IS-29E)   
1 41308U 16004A   19139.37575543  .00000006  00000-0  00000+0 0  9994
2 41308   0.1246  98.9664 0028796 307.9907 320.2843  1.00589988 12238
INTELSAT 31 (IS-31)     
1 41581U 16035A   19139.42957997 -.00000161  00000-0  00000+0 0  9997
2 41581   0.0144 261.4044 0002084 309.7813  85.2114  1.00271085 10765
INTELSAT 36 (IS-36)     
1 41747U 16053A   19138.81613712 -.00000035  00000-0  00000+0 0  9997
2 41747   0.0119 346.7337 0001048  15.0492 236.7141  1.00271780 10026
INTELSAT 33E (IS-33E)   
1 41748U 16053B   19138.81447963  .00000038  00000-0  00000+0 0  9993
2 41748   0.0193   8.6204 0002401  68.7840 152.0039  1.00272633 10284
INTELSAT 32E (IS-32E)   
1 41945U 17007B   19139.43996104 -.00000279  00000-0  00000+0 0  9995
2 41945   0.0180 318.9187 0000397  75.3497 317.7572  1.00271139  8313
INTELSAT 35E (IS-35E)   
1 42818U 17041A   19138.79555227 -.00000249  00000-0  00000+0 0  9995
2 42818   0.0419 132.6154 0001917 279.7546  75.7166  1.00272429  6903
INTELSAT 37E (IS-37E)   
1 42950U 17059A   19138.79886723 -.00000152  00000-0  00000+0 0  9992
2 42950   0.0140 318.6078 0002828 109.7533  77.4090  1.00270252  6112
AZERSPACE 2 (IS-38)     
1 43632U 18074A   19138.81142639  .00000126  00000-0  00000+0 0  9992
2 43632   0.0189 307.0443 0001764 126.0356 140.3535  1.00270243  2574
HORIZONS 3E             
1 43633U 18074B   19139.48660285 -.00000041  00000-0  00000+0 0  9996
2 43633   0.0412 101.5729 0000661  40.5895  78.8743  1.00272479  2424
